[{"OBJECT_NAME":"STARLINK-1913","OBJECT_ID":"2020-088BK","EPOCH":"2026-03-09T22:27:33.641856","MEAN_MOTION":15.30187321,"ECCENTRICITY":0.00011113,"INCLINATION":53.159,"RA_OF_ASC_NODE":305.9142,"ARG_OF_PERICENTER":99.3995,"MEAN_ANOMALY":260.7131,"EPHEMERIS_TYPE":0,"CLASSIFICATION_TYPE":"U","NORAD_CAT_ID":47179,"ELEMENT_SET_NO":999,"REV_AT_EPOCH":29180,"BSTAR":0.00010186015,"MEAN_MOTION_DOT":2.658e-5,"MEAN_MOTION_DDOT":0},{"OBJECT_NAME":"CELESTIS-17 & SHERPA-FX1","OBJECT_ID":"2021-006CB","EPOCH":"2026-03-09T15:26:05.078112","MEAN_MOTION":15.30994801,"ECCENTRICITY":0.000663,"INCLINATION":97.2397,"RA_OF_ASC_NODE":112.1052,"ARG_OF_PERICENTER":178.1385,"MEAN_ANOMALY":181.9882,"EPHEMERIS_TYPE":0,"CLASSIFICATION_TYPE":"U","NORAD_CAT_ID":47486,"ELEMENT_SET_NO":999,"REV_AT_EPOCH":28406,"BSTAR":0.00024301,"MEAN_MOTION_DOT":7.207e-5,"MEAN_MOTION_DDOT":0}]
